[{"OBJECT_NAME":"GAOFEN-9 05","OBJECT_ID":"2020-058A","EPOCH":"2026-03-10T00:01:50.876256","MEAN_MOTION":15.30293976,"ECCENTRICITY":0.0010522,"INCLINATION":97.2228,"RA_OF_ASC_NODE":111.963,"ARG_OF_PERICENTER":91.0204,"MEAN_ANOMALY":269.2242,"EPHEMERIS_TYPE":0,"CLASSIFICATION_TYPE":"U","NORAD_CAT_ID":46232,"ELEMENT_SET_NO":999,"REV_AT_EPOCH":30843,"BSTAR":0.00025120304,"MEAN_MOTION_DOT":7.299e-5,"MEAN_MOTION_DDOT":0},{"OBJECT_NAME":"STARLINK-34042","OBJECT_ID":"2025-093C","EPOCH":"2026-03-09T09:49:18.752448","MEAN_MOTION":15.27576469,"ECCENTRICITY":0.00010863,"INCLINATION":43.0035,"RA_OF_ASC_NODE":75.645,"ARG_OF_PERICENTER":260.0551,"MEAN_ANOMALY":100.0178,"EPHEMERIS_TYPE":0,"CLASSIFICATION_TYPE":"U","NORAD_CAT_ID":63838,"ELEMENT_SET_NO":999,"REV_AT_EPOCH":4797,"BSTAR":0.00052197555,"MEAN_MOTION_DOT":0.00014127,"MEAN_MOTION_DDOT":0}]
